OBJECT_NAME,OBJECT_ID,EPOCH,MEAN_MOTION,ECCENTRICITY,INCLINATION,RA_OF_ASC_NODE,ARG_OF_PERICENTER,MEAN_ANOMALY,EPHEMERIS_TYPE,CLASSIFICATION_TYPE,NORAD_CAT_ID,ELEMENT_SET_NO,REV_AT_EPOCH,BSTAR,MEAN_MOTION_DOT,MEAN_MOTION_DDOT
STARLINK-31526,2024-036U,2026-06-13T14:59:24.472320,15.31694397,.00011865,53.1610,326.7434,97.5335,262.5802,0,U,59016,999,13037,-.18529696E-4,-.94E-5,0
STARLINK-31406,2024-036V,2026-06-13T05:01:02.438400,15.34385477,.0000934,53.1612,339.8381,81.3412,278.7696,0,U,59017,999,13015,-.12637E-4,-.803E-5,0
STARLINK-31527,2024-036W,2026-06-13T06:19:43.898592,15.30195986,.0001291,53.1626,354.3715,79.9007,280.2140,0,U,59018,999,12995,.25857E-4,.407E-5,0
STARLINK-31436,2024-036X,2026-06-12T19:50:13.418016,15.30203308,.00012102,53.1629,356.6136,100.6298,259.4840,0,U,59019,999,12988,-.11311737E-4,-.694E-5,0
STARLINK-30996,2024-038A,2026-06-12T09:46:54.708096,15.27578201,.00024543,43.0082,212.1445,292.2691,67.7901,0,U,59023,999,13061,.59167557E-4,.1366E-4,0
STARLINK-31006,2024-038B,2026-06-12T17:09:59.771232,15.27584325,.00030847,43.0157,159.9586,281.3162,78.7343,0,U,59024,999,12987,.31893467E-4,.615E-5,0
STARLINK-31178,2024-038C,2026-06-13T09:34:03.398016,15.27588261,.00007618,43.0048,206.6750,277.3833,82.6932,0,U,59025,999,12928,.88704116E-4,.218E-4,0
STARLINK-30863,2024-038E,2026-06-13T10:05:30.270336,15.27580616,.00012413,43.0007,206.8263,272.7807,87.2903,0,U,59027,999,12928,.24776767E-4,.42E-5,0
STARLINK-31206,2024-038F,2026-06-13T04:54:10.080576,15.27582243,.0001459,43.0010,142.5997,274.5593,85.5092,0,U,59028,999,13013,.36134055E-4,.732E-5,0
STARLINK-31224,2024-038G,2026-06-13T13:35:48.945408,15.27582126,.00013137,42.9993,205.3620,295.0318,65.0397,0,U,59029,999,12942,.55256159E-4,.1259E-4,0
STARLINK-31186,2024-038H,2026-06-13T09:39:36.110592,15.27582540,.00013957,43.0021,206.7002,273.4482,86.6210,0,U,59030,999,12939,.28841814E-4,.532E-5,0
STARLINK-31211,2024-038J,2026-06-13T13:28:24.578112,15.27581638,.00010991,43.0023,205.3155,280.1036,79.9691,0,U,59031,999,12931,.16555428E-4,.194E-5,0
STARLINK-30862,2024-038K,2026-06-12T19:47:02.462784,15.27580780,.00015543,43.0007,198.9062,259.9350,100.1326,0,U,59032,999,12932,.31842489E-4,.614E-5,0
STARLINK-31210,2024-038L,2026-06-13T09:23:39.099264,15.27582718,.00014105,43.0008,203.1720,271.7850,88.2840,0,U,59033,999,12949,.41106566E-4,.869E-5,0
STARLINK-31231,2024-038M,2026-06-12T09:45:46.875456,15.27563359,.00018091,43.0015,208.6821,280.3501,79.7147,0,U,59034,999,12917,-.35807538E-4,-.1247E-4,0
STARLINK-31207,2024-038N,2026-06-13T13:55:01.075584,15.27584421,.00014831,42.9998,202.0061,269.5746,90.4936,0,U,59035,999,12952,.78696093E-4,.1904E-4,0
STARLINK-31217,2024-038P,2026-06-13T13:36:59.469408,15.27565851,.00014782,43.0075,107.7502,261.3461,98.7223,0,U,59036,999,13060,-.27833889E-4,-.1028E-4,0
STARLINK-31208,2024-038Q,2026-06-13T13:19:22.096704,15.27585462,.00011881,42.9993,206.0979,271.1809,88.8906,0,U,59037,999,12947,.18036649E-3,.4705E-4,0
STARLINK-31235,2024-038R,2026-06-13T09:08:51.253728,15.27579886,.00025919,43.0040,203.0967,283.3825,76.6738,0,U,59038,999,12943,.27305067E-4,.489E-5,0
STARLINK-31220,2024-038S,2026-06-13T09:11:50.933760,15.27582909,.00026919,43.0124,206.5646,284.9145,75.1409,0,U,59039,999,12939,.39094575E-4,.813E-5,0
STARLINK-31225,2024-038T,2026-06-13T13:30:56.760480,15.27573531,.00014618,43.0018,201.8452,262.1470,97.9215,0,U,59040,999,12935,-.15105133E-3,-.4415E-4,0
STARLINK-31240,2024-038U,2026-06-13T09:44:00.093696,15.27583800,.00012108,42.9995,203.2800,267.9756,92.0957,0,U,59041,999,12943,.47192603E-4,.1037E-4,0
STARLINK-31202,2024-038V,2026-06-13T09:36:23.664096,15.28748566,.00020954,43.0007,202.3894,139.9457,220.1550,0,U,59042,999,12950,.48757369E-3,.13666E-3,0
STARLINK-31234,2024-038W,2026-06-13T09:34:45.863616,15.27568315,.00009589,43.0016,203.2292,268.7215,91.3526,0,U,59043,999,12932,-.39158998E-4,-.1339E-4,0
STARLINK-31153,2024-038X,2026-06-13T09:03:17.821440,15.27585251,.000264,43.0046,203.0679,281.7655,78.2901,0,U,59044,999,12932,.10378577E-3,.2595E-4,0
STARLINK-31241,2024-038Y,2026-06-13T09:40:17.723424,15.27587151,.00011659,43.0008,203.2564,280.0178,80.0542,0,U,59045,999,12949,.71839882E-4,.1716E-4,0
STARLINK-31205,2024-038Z,2026-06-13T09:29:11.278752,15.27593100,.0001315,43.0041,203.1954,282.7826,77.2878,0,U,59046,999,12943,.8751437E-4,.2148E-4,0
STARLINK-31265,2024-041A,2026-06-13T15:01:35.368320,15.27580036,.00016511,43.0096,128.9145,266.2405,93.8258,0,U,59074,999,12894,.24110183E-4,.401E-5,0
STARLINK-31276,2024-041B,2026-06-13T14:15:21.508416,15.27568495,.00019071,43.0011,128.6797,279.0731,80.9905,0,U,59075,999,12899,-.5655717E-5,-.418E-5,0
STARLINK-31259,2024-041C,2026-06-13T04:55:56.737920,15.27580597,.00007532,43.0031,130.9261,259.5948,100.4818,0,U,59076,999,12783,.24165978E-4,.403E-5,0
STARLINK-31281,2024-041D,2026-06-13T14:26:26.390112,15.27574804,.00008133,43.0041,128.7346,290.1873,69.8891,0,U,59077,999,12899,.21121524E-4,.319E-5,0
STARLINK-31274,2024-041E,2026-06-13T15:08:59.153280,15.27582930,.00022881,43.0074,128.9520,278.1740,81.8852,0,U,59078,999,12894,.43554291E-4,.936E-5,0
STARLINK-31257,2024-041F,2026-06-13T14:44:54.693888,15.27590519,.00035457,43.0033,128.8316,268.6554,91.3892,0,U,59079,999,12894,.90062584E-4,.2217E-4,0
STARLINK-31292,2024-041H,2026-06-13T14:31:59.692800,15.27570474,.00007781,43.0027,128.7634,276.5062,83.5701,0,U,59081,999,12893,.15217E-6,-.258E-5,0
STARLINK-31286,2024-041J,2026-06-13T14:37:34.880736,15.27551547,.00014162,43.0078,128.7985,275.2005,84.8685,0,U,59082,999,12902,-.11987682E-3,-.3557E-4,0
STARLINK-31252,2024-041K,2026-06-12T22:47:09.204576,15.27574002,.00010489,43.0032,49.5409,250.9655,109.1083,0,U,59083,999,12984,-.292843E-6,-.27E-5,0
STARLINK-31261,2024-041L,2026-06-13T04:19:08.984640,15.27578615,.00014592,43.0026,131.5822,271.6549,88.4135,0,U,59084,999,12892,.13179831E-4,.1E-5,0
STARLINK-31290,2024-041M,2026-06-13T03:15:21.554496,15.27567892,.00015059,43.0021,117.4074,264.9347,95.1333,0,U,59085,999,12917,.300809E-6,-.254E-5,0
STARLINK-31279,2024-041N,2026-06-13T14:04:26.735520,15.27576416,.00011443,43.0025,129.4712,274.3970,85.6750,0,U,59086,999,12898,.35085457E-4,.703E-5,0
STARLINK-31266,2024-041P,2026-06-13T14:43:03.864288,15.27585389,.00030538,43.0035,128.8208,266.6830,93.3673,0,U,59087,999,12899,.7638492E-5,-.53E-6,0
STARLINK-31313,2024-041Q,2026-06-13T14:46:47.350848,15.27573479,.00018602,43.0049,128.8411,288.0050,72.0599,0,U,59088,999,12894,-.13338677E-4,-.629E-5,0
STARLINK-31307,2024-041R,2026-06-13T14:41:14.198496,15.27577073,.00010735,43.0060,128.8167,277.9017,82.1713,0,U,59089,999,12899,.6772563E-5,-.76E-6,0
STARLINK-31316,2024-041S,2026-06-13T11:37:51.434976,15.27575555,.0001357,42.9982,82.8909,274.1050,85.9646,0,U,59090,999,12940,-.8379316E-5,-.493E-5,0
STARLINK-31310,2024-041U,2026-06-13T14:13:41.041632,15.27582446,.00013016,43.0013,129.5199,273.9374,86.1329,0,U,59092,999,12893,.28865892E-4,.532E-5,0
STARLINK-31343,2024-041V,2026-06-13T04:30:14.981760,15.27581260,.00011721,43.0011,131.6357,268.7562,91.3155,0,U,59093,999,12892,.38839966E-4,.807E-5,0
STARLINK-31295,2024-041X,2026-06-13T14:57:53.017920,15.27582258,.00026788,43.0059,128.8944,13.0883,347.0037,0,U,59095,999,12894,.2632536E-4,.462E-5,0
STARLINK-31291,2024-041Y,2026-06-13T14:54:10.758240,15.27579442,.00026625,43.0203,128.8705,272.3954,87.6593,0,U,59096,999,12894,.16051186E-4,.179E-5,0
STARLINK-31312,2024-044A,2026-06-13T12:00:14.078880,15.27577316,.00014692,43.0119,235.2397,104.1788,255.9228,0,U,59152,999,12883,.14836846E-4,.146E-5,0
STARLINK-31308,2024-044B,2026-06-12T22:27:18.254016,15.27575972,.0003001,43.0106,242.2988,278.9977,81.0536,0,U,59153,999,12871,.16670656E-4,.196E-5,0
STARLINK-31270,2024-044C,2026-06-13T14:31:41.606688,15.27576901,.00006841,43.0012,285.4351,275.1796,84.8977,0,U,59154,999,12826,.4651487E-5,-.134E-5,0
STARLINK-31341,2024-044D,2026-06-13T14:51:20.583936,15.27547850,.00009373,43.0008,288.9839,275.9332,84.1413,0,U,59155,999,12819,.23129532E-3,.6102E-4,0
STARLINK-31338,2024-044E,2026-06-13T14:45:47.389248,15.27577804,.00014104,43.0043,288.9536,267.6138,92.4552,0,U,59156,999,12819,-.12468945E-4,-.605E-5,0
STARLINK-31334,2024-044F,2026-06-12T19:44:48.783840,15.27581646,.00005411,43.0024,293.3332,317.4784,42.6025,0,U,59157,999,12807,.21141427E-4,.32E-5,0
STARLINK-31297,2024-044G,2026-06-13T14:37:15.502080,15.27576471,.00034724,43.0246,285.4796,289.5627,70.4850,0,U,59158,999,12826,.16065758E-4,.179E-5,0
STARLINK-31182,2024-044H,2026-06-12T15:45:22.936608,15.27582372,.00016617,43.0039,290.3579,273.7297,86.3365,0,U,59159,999,12812,-.413947E-5,-.376E-5,0
STARLINK-31327,2024-044J,2026-06-13T14:40:58.312128,15.27553817,.00018354,43.0041,285.4848,272.9861,87.0781,0,U,59160,999,12826,-.96841536E-4,-.2924E-4,0
STARLINK-31256,2024-044K,2026-06-13T15:23:17.554560,15.27569890,.00008756,42.9993,284.8379,270.5957,89.4794,0,U,59161,999,12827,-.29377436E-4,-.107E-4,0
STARLINK-31272,2024-044L,2026-06-13T16:00:01.999584,15.27558945,.00009665,43.0027,284.7527,280.2821,199.0347,0,U,59162,999,582,.10422969E-2,.28512E-3,0
STARLINK-31278,2024-044M,2026-06-13T08:00:01.999872,15.27561336,.00015268,43.0027,286.6834,255.6454,167.2307,0,U,59163,999,577,.11437539E-2,.31327E-3,0
STARLINK-31309,2024-044N,2026-06-13T01:32:33.113760,15.27560391,.00011256,43.0094,288.2536,270.2875,89.7847,0,U,59164,999,12818,-.72823829E-4,-.2264E-4,0
STARLINK-31325,2024-044P,2026-06-13T01:36:15.600672,15.27561078,.00010318,42.9987,288.2713,81.9451,278.1517,0,U,59165,999,12815,-.59718679E-4,-.1904E-4,0
STARLINK-31342,2024-044Q,2026-06-13T01:41:46.313952,15.27581690,.0002688,43.0049,288.3009,268.9639,91.0904,0,U,59166,999,12818,.34432517E-4,.685E-5,0
STARLINK-31298,2024-044R,2026-06-12T14:48:14.273568,15.27577982,.00009794,43.0009,290.9124,245.5054,114.5695,0,U,59167,999,12808,.24163583E-4,.403E-5,0
STARLINK-31322,2024-044S,2026-06-13T14:57:36.345312,15.27569932,.0000883,43.0027,285.5607,249.6688,110.4069,0,U,59168,999,12826,-.21808147E-4,-.862E-5,0
